TJS-26A                 
1 69674U 26144A   26203.35039480 -.00000342  00000+0  00000+0 0  9992
2 69674   6.9387 323.2281 0003943 350.5825 219.9708  1.00270775   291
CZ-7A R/B               
1 69675U 26144B   26202.43384815  .01022165  17422-4  91498-3 0  9999
2 69675  19.4341 311.9524 6990216 202.3113  99.1891  2.73957548   734
STARLINK-38005          
1 69677U 26145A   26203.58336806 -.02141460  00000+0 -28734-1 0  9999
2 69677  97.2848  50.7511 0001733  71.7487  65.2282 15.61557319  5612
STARLINK-38009          
1 69678U 26145B   26203.58336806 -.02427103  00000+0 -32356-1 0  9996
2 69678  97.2842  50.7577 0001971  83.6495  75.3214 15.61578839  5611
STARLINK-37998          
1 69679U 26145C   26203.58336806 -.02259194  00000+0 -19505-1 0  9991
2 69679  97.2838  50.7887 0002101  90.3456 140.4682 15.72563142  5615
STARLINK-37994          
1 69680U 26145D   26203.58336806 -.02097005  00000+0 -27573-1 0  9998
2 69680  97.2847  50.7588 0001832  72.5657  79.8748 15.61995475  5614
STARLINK-37992          
1 69681U 26145E   26203.58336806 -.02436256  00000+0 -30789-1 0  9997
2 69681  97.2841  50.7626 0001832  97.4741  74.0186 15.62959608  5614
STARLINK-37997          
1 69682U 26145F   26203.58336806 -.02398213  00000+0 -29285-1 0  9997
2 69682  97.2839  50.7716 0001870  92.0616  99.5118 15.63772191  5614
STARLINK-37990          
1 69683U 26145G   26203.58336806 -.02199431  00000+0 -29745-1 0  9990
2 69683  97.2846  50.7564 0001887  75.5115  74.7210 15.60865644  5613
STARLINK-37951          
1 69684U 26145H   26203.54132304  .00176612  00000+0  11583-2 0  9998
2 69684  97.2842  50.7480 0001015  98.5166 261.6214 15.75235917  4330
STARLINK-37957          
1 69685U 26145J   26203.58336806 -.02267135  00000+0 -29052-1 0  9990
2 69685  97.2841  50.7696 0002056 103.5874  84.7401 15.62351000  5610
STARLINK-37968          
1 69686U 26145K   26203.58336806 -.02381019  00000+0 -42911-1 0  9998
2 69686  97.2854  50.7470 0001790  64.5843  58.2721 15.53504937  5611
STARLINK-37977          
1 69687U 26145L   26203.58336806 -.02364727  00000+0 -34070-1 0  9993
2 69687  97.2849  50.7787 0001978  83.6683 114.8622 15.59469020  5617
STARLINK-37908          
1 69688U 26145M   26203.58336806 -.02408789  00000+0 -27772-1 0  9992
2 69688  97.2843  50.8015 0001708 102.7169 156.9011 15.65231804  5613
STARLINK-37979          
1 69689U 26145N   26203.58336806 -.00866325  00000+0 -14376-1 0  9991
2 69689  97.2852  50.7608 0001709  91.0848  66.8335 15.54617889  5613
STARLINK-37940          
1 69690U 26145P   26203.58336806 -.00744766  00000+0 -78114-2 0  9998
2 69690  97.2843  50.8060 0001143  83.4444 186.9686 15.66578113  5619
STARLINK-37961          
1 69691U 26145Q   26203.58336806 -.02330061  00000+0 -34861-1 0  9990
2 69691  97.2847  50.7911 0002219  80.1859 146.1013 15.58420858  5612
STARLINK-37787          
1 69692U 26145R   26203.58336806 -.02137124  00000+0 -26944-1 0  9999
2 69692  97.2845  50.8139 0001916  90.0507 194.4174 15.63137550  5611
STARLINK-37962          
1 69693U 26145S   26203.58336806 -.02334707  00000+0 -26011-1 0  9991
2 69693  97.2844  50.8220 0001620  81.9261 226.2709 15.65977828  5610
STARLINK-37953          
1 69694U 26145T   26203.58336806 -.02381998  00000+0 -37893-1 0  9996
2 69694  97.2847  50.7855 0002174  88.2675 125.0379 15.56876213  5616
STARLINK-37926          
1 69695U 26145U   26203.58336806 -.02329270  00000+0 -35979-1 0  9995
2 69695  97.2848  50.7872 0002210  84.3446 139.5296 15.57575321  5616
STARLINK-37959          
1 69696U 26145V   26203.58336806 -.02211669  00000+0 -26218-1 0  9994
2 69696  97.2845  50.8181 0001768  97.4229 202.2004 15.64824208  5613
STARLINK-37976          
1 69697U 26145W   26203.58336806 -.02459593  00000+0 -31405-1 0  9999
2 69697  97.2844  50.8187 0001652  87.7097 213.1619 15.62735360  5617
STARLINK-37912          
1 69698U 26145X   26203.13898648  .00253475  00000+0  16454-2 0  9993
2 69698  97.2844  50.3778 0001121  85.2383 274.9010 15.75259796  4270
STARLINK-37974          
1 69699U 26145Y   26201.10540454  .00047977  00000+0  32061-3 0  9999
2 69699  97.2826  48.2458 0003196  71.4063 288.7550 15.75193191  3950
STARLINK-37955          
1 69700U 26145Z   26203.58336806 -.00992716  00000+0 -12494-1 0  9998
2 69700  97.2843  50.8217 0001085  84.2361 222.1751 15.62291687  5617
STRIX-8                 
1 69701U 26146A   26203.52167305  .00004471  00000+0  32727-3 0  9993
2 69701  41.9902 332.5064 0006363  77.4095 282.7443 15.04479262  3882
ELECTRON R/B            
1 69702U 26146B   26203.31875204  .00702004  18235-3  14336-2 0  9990
2 69702  42.0717 318.5609 0146759  70.7349 290.9318 15.82089404  4031
ELECTRON KICK STAGE R/B 
1 69703U 26146C   26203.51288008  .00003644  00000+0  26570-3 0  9998
2 69703  41.9887 332.4353 0008224  76.9064 283.2681 15.04982929  3883
STARLINK-38055          
1 69704U 26147A   26203.58336806 -.02404568  00000+0 -24251-1 0  9993
2 69704  97.2850 240.3719 0001336  90.8191 258.6509 15.68521628  4920
