OBJECT_NAME,OBJECT_ID,EPOCH,MEAN_MOTION,ECCENTRICITY,INCLINATION,RA_OF_ASC_NODE,ARG_OF_PERICENTER,MEAN_ANOMALY,EPHEMERIS_TYPE,CLASSIFICATION_TYPE,NORAD_CAT_ID,ELEMENT_SET_NO,REV_AT_EPOCH,BSTAR,MEAN_MOTION_DOT,MEAN_MOTION_DDOT
TJS-26A,2026-144A,2026-07-22T08:24:34.110720,1.00270775,.00039431,6.9387,323.2281,350.5825,219.9708,0,U,69674,999,29,0,-.342E-5,0
CZ-7A R/B,2026-144B,2026-07-21T10:24:44.480160,2.73957548,.69902162,19.4341,311.9524,202.3113,99.1891,0,U,69675,999,73,.91497643E-3,.1022165E-1,.17421503E-4
STARLINK-38005,2026-145A,2026-07-22T14:00:03.000384,15.61557319,.00017334,97.2848,50.7511,71.7487,65.2282,0,U,69677,999,561,-.28733958E-1,-.214146E-1,0
STARLINK-38009,2026-145B,2026-07-22T14:00:03.000384,15.61578839,.00019717,97.2842,50.7577,83.6495,75.3214,0,U,69678,999,561,-.32355838E-1,-.2427103E-1,0
STARLINK-37998,2026-145C,2026-07-22T14:00:03.000384,15.72563142,.00021014,97.2838,50.7887,90.3456,140.4682,0,U,69679,999,561,-.19505485E-1,-.2259194E-1,0
STARLINK-37994,2026-145D,2026-07-22T14:00:03.000384,15.61995475,.00018321,97.2847,50.7588,72.5657,79.8748,0,U,69680,999,561,-.27572594E-1,-.2097005E-1,0
STARLINK-37992,2026-145E,2026-07-22T14:00:03.000384,15.62959608,.00018329,97.2841,50.7626,97.4741,74.0186,0,U,69681,999,561,-.30788841E-1,-.2436256E-1,0
STARLINK-37997,2026-145F,2026-07-22T14:00:03.000384,15.63772191,.00018703,97.2839,50.7716,92.0616,99.5118,0,U,69682,999,561,-.29285104E-1,-.2398213E-1,0
STARLINK-37990,2026-145G,2026-07-22T14:00:03.000384,15.60865644,.00018874,97.2846,50.7564,75.5115,74.7210,0,U,69683,999,561,-.29744575E-1,-.2199431E-1,0
STARLINK-37951,2026-145H,2026-07-22T12:59:30.310656,15.75235917,.00010152,97.2842,50.7480,98.5166,261.6214,0,U,69684,999,433,.11583346E-2,.176612E-2,0
STARLINK-37957,2026-145J,2026-07-22T14:00:03.000384,15.62351000,.00020561,97.2841,50.7696,103.5874,84.7401,0,U,69685,999,561,-.29051705E-1,-.2267135E-1,0
STARLINK-37968,2026-145K,2026-07-22T14:00:03.000384,15.53504937,.000179,97.2854,50.7470,64.5843,58.2721,0,U,69686,999,561,-.42911394E-1,-.2381019E-1,0
STARLINK-37977,2026-145L,2026-07-22T14:00:03.000384,15.59469020,.00019788,97.2849,50.7787,83.6683,114.8622,0,U,69687,999,561,-.34069576E-1,-.2364727E-1,0
STARLINK-37908,2026-145M,2026-07-22T14:00:03.000384,15.65231804,.00017082,97.2843,50.8015,102.7169,156.9011,0,U,69688,999,561,-.27771892E-1,-.2408789E-1,0
STARLINK-37979,2026-145N,2026-07-22T14:00:03.000384,15.54617889,.00017095,97.2852,50.7608,91.0848,66.8335,0,U,69689,999,561,-.14375824E-1,-.866325E-2,0
STARLINK-37940,2026-145P,2026-07-22T14:00:03.000384,15.66578113,.00011431,97.2843,50.8060,83.4444,186.9686,0,U,69690,999,561,-.78113541E-2,-.744766E-2,0
STARLINK-37961,2026-145Q,2026-07-22T14:00:03.000384,15.58420858,.00022199,97.2847,50.7911,80.1859,146.1013,0,U,69691,999,561,-.34861146E-1,-.2330061E-1,0
STARLINK-37787,2026-145R,2026-07-22T14:00:03.000384,15.63137550,.00019164,97.2845,50.8139,90.0507,194.4174,0,U,69692,999,561,-.26944014E-1,-.2137124E-1,0
STARLINK-37962,2026-145S,2026-07-22T14:00:03.000384,15.65977828,.00016204,97.2844,50.8220,81.9261,226.2709,0,U,69693,999,561,-.26011483E-1,-.2334707E-1,0
STARLINK-37953,2026-145T,2026-07-22T14:00:03.000384,15.56876213,.0002174,97.2847,50.7855,88.2675,125.0379,0,U,69694,999,561,-.37892531E-1,-.2381998E-1,0
STARLINK-37926,2026-145U,2026-07-22T14:00:03.000384,15.57575321,.00022102,97.2848,50.7872,84.3446,139.5296,0,U,69695,999,561,-.35979049E-1,-.232927E-1,0
STARLINK-37959,2026-145V,2026-07-22T14:00:03.000384,15.64824208,.00017686,97.2845,50.8181,97.4229,202.2004,0,U,69696,999,561,-.26217967E-1,-.2211669E-1,0
STARLINK-37976,2026-145W,2026-07-22T14:00:03.000384,15.62735360,.00016522,97.2844,50.8187,87.7097,213.1619,0,U,69697,999,561,-.31405196E-1,-.2459593E-1,0
STARLINK-37912,2026-145X,2026-07-22T03:20:08.431872,15.75259796,.0001121,97.2844,50.3778,85.2383,274.9010,0,U,69698,999,427,.16453523E-2,.253475E-2,0
STARLINK-37974,2026-145Y,2026-07-20T02:31:46.952256,15.75193191,.00031968,97.2826,48.2458,71.4063,288.7550,0,U,69699,999,395,.32060592E-3,.47977E-3,0
STARLINK-37955,2026-145Z,2026-07-22T14:00:03.000384,15.62291687,.00010852,97.2843,50.8217,84.2361,222.1751,0,U,69700,999,561,-.12494221E-1,-.992716E-2,0
STRIX-8,2026-146A,2026-07-22T12:31:12.551520,15.04479262,.00063639,41.9902,332.5064,77.4095,282.7443,0,U,69701,999,388,.32727421E-3,.4471E-4,0
ELECTRON R/B,2026-146B,2026-07-22T07:39:00.176256,15.82089404,.01467597,42.0717,318.5609,70.7349,290.9318,0,U,69702,999,403,.14336158E-2,.702004E-2,.1823544E-3
ELECTRON KICK STAGE R/B,2026-146C,2026-07-22T12:18:32.838912,15.04982929,.0008224,41.9887,332.4353,76.9064,283.2681,0,U,69703,999,388,.26569768E-3,.3644E-4,0
STARLINK-38055,2026-147A,2026-07-22T14:00:03.000384,15.68521628,.00013361,97.2850,240.3719,90.8191,258.6509,0,U,69704,999,492,-.24251307E-1,-.2404568E-1,0
